store,address,phone,address2,지역 시/군/구
군포송정점,경기 군포시 송부로34번길 2,1577-9621,경기도 군포시 송부로34번길 2,군포시
오산궐동원룸점,경기 오산시 대호로 141 106호,1577-9621,경기도 오산시 대호로 141 106호,오산시
장안나이스점,"경기 수원시 장안구 덕영대로407번길 83, 상가동 7,8,9호",1577-9621,"경기도 수원시 장안구 덕영대로407번길 83, 상가동 7,8,9호",수원시 장안구
안산초당점,경기 안산시 상록구 장화3길 2-1,1577-9621,경기도 안산시 상록구 장화3길 2-1,안산시상록구
광주중대로또점,경기 광주시 순암로 409,1577-9621,경기도 광주시 순암로 409,광주시
선경다온점,경기 안산시 상록구 감골2로 60,1577-9621,경기도 안산시 상록구 감골2로 60,안산시상록구
시흥정왕군서점,"경기 시흥시 봉우재로23번길 10, 1층",1577-9621,"경기도 시흥시 봉우재로23번길 10, 1층",시흥시
베어스타운점,경기 포천시 내촌면 금강로2536번길 27,1577-9621 소프트크림 판매점,경기도 포천시 내촌면 금강로2536번길 27,포천시
장자산단점,경기 포천시 신북면 장자경제로 103-28,1577-9621 소프트크림 판매점,경기도 포천시 신북면 장자경제로 103-28,포천시
갈산본점,"경기 김포시 월곶면 군하로 18, 2동 1층",1577-9621,"경기도 김포시 월곶면 군하로 18, 2동 1층",김포시
청북중앙로점,경기 평택시 청북읍 청북중앙로 346,1577-9621,경기도 평택시 청북읍 청북중앙로 346,평택시
고덕삼성점,경기 평택시 고덕여염5길 170,1577-9621,경기도 평택시 고덕여염5길 170,평택시
신봉자이점,"경기 용인시 수지구 신봉2로14번길 2, 102호, 103호",1577-9621 소프트크림 판매점,"경기도 용인시 수지구 신봉2로14번길 2, 102호, 103호",용인시수지구
수원대삼거리점,"경기 화성시 봉담읍 와우안길 112, 1층 2호",1577-9621,"경기도 화성시 봉담읍 와우안길 112, 1층 2호",화성시
권선센터점,"경기 수원시 권선구 장다리로 88, 1층",1577-9621 소프트크림 판매점,"경기도 수원시 권선구 장다리로 88, 1층",수원시 권선구
시흥오이도점,"경기 시흥시 오이도5길 19, 1층",1577-9621,"경기도 시흥시 오이도5길 19, 1층",시흥시
금촌행복점,경기 파주시 황골로 22,1577-9621,경기도 파주시 황골로 22,파주시
뉴시흥호현로점,"경기 시흥시 호현로21번길 19-1, 1층",1577-9621,"경기도 시흥시 호현로21번길 19-1, 1층",시흥시
화성석교점,"경기 화성시 마도면 석교로157번길 17, 101호, 102호, 103호",1577-9621,"경기도 화성시 마도면 석교로157번길 17, 101호, 102호, 103호",화성시
광주탄벌점,경기 광주시 벌원길 61-1,1577-9621 소프트크림 판매점,경기도 광주시 벌원길 61-1,광주시
로얄하임점,"경기 김포시 통진읍 마송1로 122 (마송리 513), 상가동 108호, 109호",1577-9621 소프트크림 판매점,"경기도 김포시 통진읍 마송1로 122 (마송리 513), 상가동 108호, 109호",김포시
포천용아점,경기 포천시 송선로149번길 2,1577-9621,경기도 포천시 송선로149번길 2,포천시
서울대공원입구점,경기 과천시 대공원광장로 80 서울대공원 주차장 내 미니스톱,1577-9621,경기도 과천시 대공원광장로 80 서울대공원 주차장 내 미니스톱,과천시
오산대역점,"경기 오산시 내삼미로79번길 27, 114호",1577-9621,"경기도 오산시 내삼미로79번길 27, 114호",오산시
평택옥길점,경기 평택시 청북읍 안청로2길 33-3,1577-9621,경기도 평택시 청북읍 안청로2길 33-3,평택시
수원우만점,경기 수원시 팔달구 팔달문로175번길 77,1577-9621,경기도 수원시 팔달구 팔달문로175번길 77,수원시 팔달구
범박타운점,경기 부천시 양지로92번길 9-3 (범박동) 107호,1577-9621,경기도 부천시 양지로92번길 9-3 (범박동) 107호,부천시
구리갈매점,경기 구리시 갈매중앙로 31 갈매6단지 상가동,1577-9621,경기도 구리시 갈매중앙로 31 갈매6단지 상가동,구리시
용인화산점,경기 용인시 처인구 이동읍 화산로 114,1577-9621,경기도 용인시 처인구 이동읍 화산로 114,용인시처인구
안산두레점,"경기 안산시 상록구 두레로 10,1층",1577-9621,"경기도 안산시 상록구 두레로 10,1층",안산시상록구
진접빌리지점,경기 남양주시 진접읍 경복대로17번안길 77-5,1577-9621 소프트크림 판매점,경기도 남양주시 진접읍 경복대로17번안길 77-5,남양주시
수원과학대점,경기 화성시 정남면 세자로 293-6,1577-9621,경기도 화성시 정남면 세자로 293-6,화성시
통진행복점,경기 김포시 통진읍 율마로438번길 51,1577-9621 소프트크림 판매점,경기도 김포시 통진읍 율마로438번길 51,김포시
시흥매화점,경기 시흥시 매화1로 22-3,1577-9621,경기도 시흥시 매화1로 22-3,시흥시
금촌미소점,경기 파주시 금신초교길 56,1577-9621,경기도 파주시 금신초교길 56,파주시
포천터미널점,경기 포천시 중앙로 126-6,1577-9621,경기도 포천시 중앙로 126-6,포천시
관양센터점,경기 안양시 동안구 관악대로373번길 28,1577-9621,경기도 안양시 동안구 관악대로373번길 28,안양시동안구
동탄프리미엄점,경기 화성시 동탄기흥로257번가길 40-2,1577-9621 소프트크림 판매점,경기도 화성시 동탄기흥로257번가길 40-2,화성시
여주영진점,경기 여주시 강변유원지길 22-35 (영진리버빌아파트),1577-9621,경기도 여주시 강변유원지길 22-35 (영진리버빌아파트),여주시
수원기산점,경기 수원시 장안구 영화로86번길 8,1577-9621,경기도 수원시 장안구 영화로86번길 8,수원시 장안구
두원공대점,경기 파주시 파주읍 주라위길 178,1577-9621,경기도 파주시 파주읍 주라위길 178,파주시
안산한양점,경기 안산시 단원구 달미로 63,1577-9621,경기도 안산시 단원구 달미로 63,안산시단원구
이천삼백점,경기 이천시 향교로 144-11,1577-9621,경기도 이천시 향교로 144-11,이천시
해든시티점,경기 시흥시 서울대학로264번길 26-18,1577-9621,경기도 시흥시 서울대학로264번길 26-18,시흥시
서울대공원점,경기 과천시 대공원광장로 102,1577-9621 소프트크림 판매점,경기도 과천시 대공원광장로 102,과천시
북여주IC점,경기 여주시 흥천면 이여로 928,1577-9621,경기도 여주시 흥천면 이여로 928,여주시
덕소쌍용점,경기 남양주시 와부읍 덕소로 196-14,1577-9621,경기도 남양주시 와부읍 덕소로 196-14,남양주시
용인백암사거리점,경기 용인시 처인구 백암면 백암로186번길 3,1577-9621,경기도 용인시 처인구 백암면 백암로186번길 3,용인시처인구
군포하니점,경기 군포시 번영로610번길 8,1577-9621,경기도 군포시 번영로610번길 8,군포시
정남신리점,경기 화성시 정남면 신백길 108-4,1577-9621,경기도 화성시 정남면 신백길 108-4,화성시
한국잡월드점,경기 성남시 분당구 분당수서로 501,1577-9621,경기도 성남시 분당구 분당수서로 501,성남시 분당구
서정스마트점,"경기 평택시 서정역로58번길 39,104호",1577-9621,"경기도 평택시 서정역로58번길 39,104호",평택시
오포추자공단점,경기 광주시 오포읍 오포로 673-1,1577-9621 소프트크림 판매점,경기도 광주시 오포읍 오포로 673-1,광주시
대야영남점,경기 시흥시 복지로120번길 8,1577-9621,경기도 시흥시 복지로120번길 8,시흥시
구리교문점,경기 구리시 체육관로171번길 12,1577-9621 소프트크림 판매점,경기도 구리시 체육관로171번길 12,구리시
운정포인트점,"경기 파주시 운정로 28, 1층 일부",1577-9621,"경기도 파주시 운정로 28, 1층 일부",파주시
시흥현서점,"경기 시흥시 군자로504번길 7, 1층",1577-9621,"경기도 시흥시 군자로504번길 7, 1층",시흥시
오산더샵점,"경기 오산시 내삼미로 65 상가동 103, 104호",1577-9621,"경기도 오산시 내삼미로 65 상가동 103, 104호",오산시
풍무푸르지오점,"경기 김포시 풍무1로 77, 1층 104호",1577-9621,"경기도 김포시 풍무1로 77, 1층 104호",김포시
지산포레스트점,경기 이천시 마장면 지산로 267 지산리조트 J플라자,1577-9621,경기도 이천시 마장면 지산로 267 지산리조트 J플라자,이천시
매탄한샘점,경기 수원시 영통구 매여울로 36,1577-9621,경기도 수원시 영통구 매여울로 36,수원시 영통구
성남시의료원점,경기 성남시 수정구 수정로171번길 10 성남시의료원 로비층(B1),1577-9621 소프트크림 판매점,경기도 성남시 수정구 수정로171번길 10 성남시의료원 로비층(B1),성남시 수정구
평택세교점,경기 평택시 세교3로 26,1577-9621 소프트크림 판매점,경기도 평택시 세교3로 26,평택시
옥정프라자점,"경기 양주시 옥정로 218, 113호",1577-9621,"경기도 양주시 옥정로 218, 113호",양주시
안산호수점,"경기 안산시 단원구 광덕서로 15, 호수공원대림아파트 동문상가 1층",1577-9621,"경기도 안산시 단원구 광덕서로 15, 호수공원대림아파트 동문상가 1층",안산시단원구
시흥능곡점,경기 시흥시 승지로 7,1577-9621,경기도 시흥시 승지로 7,시흥시
옥길킹타워점,경기 부천시 양지로184번길 29,1577-9621,경기도 부천시 양지로184번길 29,부천시
성남수진역점,"경기 성남시 수정구 산성대로 207, 1층",1577-9621,"경기도 성남시 수정구 산성대로 207, 1층",성남시 수정구
안양박달점,경기 안양시 만안구 양화로136번길 56,1577-9621,경기도 안양시 만안구 양화로136번길 56,안양시만안구
운정미래점,"경기 파주시 미래로602번길 31, 106호",1577-9621 소프트크림 판매점,"경기도 파주시 미래로602번길 31, 106호",파주시
여주한성점,"경기 여주시 우암로 190, 한성아파트상가 103~105호",1577-9621,"경기도 여주시 우암로 190, 한성아파트상가 103~105호",여주시
정왕대림점,"경기 시흥시 중심상가로 13, 106호",1577-9621,"경기도 시흥시 중심상가로 13, 106호",시흥시
양주옥정메인점,"경기 양주시 옥정동로7가길 36 양주옥정 메인타워, 116호",1577-9621 소프트크림 판매점,"경기도 양주시 옥정동로7가길 36 양주옥정 메인타워, 116호",양주시
수지상현점,"경기 용인시 수지구 광교중앙로296번길 14, 108호",1577-9621,"경기도 용인시 수지구 광교중앙로296번길 14, 108호",용인시수지구
서이천점,경기 이천시 신둔면 서이천로 908 천지맨션 가동 1~3호,1577-9621,경기도 이천시 신둔면 서이천로 908 천지맨션 가동 1~3호,이천시
성남하나점,경기 성남시 수정구 남문로6번길 1,1577-9621,경기도 성남시 수정구 남문로6번길 1,성남시 수정구
오포물류센터점,"경기 광주시 오포읍 오포로 292, 103호",1577-9621,"경기도 광주시 오포읍 오포로 292, 103호",광주시
오포금빛마을점,"경기 광주시 오포읍 오포로171번길 17-246, B1층",1577-9621 소프트크림 판매점,"경기도 광주시 오포읍 오포로171번길 17-246, B1층",광주시
대명항점,경기 김포시 대곶면 대명항1로 40-2,1577-9621,경기도 김포시 대곶면 대명항1로 40-2,김포시
대야미역점,경기 군포시 대야1로 17,1577-9621 소프트크림 판매점,경기도 군포시 대야1로 17,군포시
풍무본점,"경기 김포시 풍무로 73, 제2층 205로, 206호",1577-9621 소프트크림 판매점,"경기도 김포시 풍무로 73, 제2층 205로, 206호",김포시
선부한양점,"경기 안산시 단원구 선부로 199, 101호, 102호",1577-9621 소프트크림 판매점,"경기도 안산시 단원구 선부로 199, 101호, 102호",안산시단원구
안양힐링점,경기 안양시 만안구 병목안로 216,1577-9621 소프트크림 판매점,경기도 안양시 만안구 병목안로 216,안양시만안구
풍무타워점,"경기 김포시 풍무2로 43, 104호, 105호",1577-9621,"경기도 김포시 풍무2로 43, 104호, 105호",김포시
은계풍경채점,경기 시흥시 은계중앙로 151,1577-9621 소프트크림 판매점,경기도 시흥시 은계중앙로 151,시흥시
화성증거리점,경기 화성시 향남읍 우등길 60,1577-9621 소프트크림 판매점,경기도 화성시 향남읍 우등길 60,화성시
동두천운동장점,경기 동두천시 못골로 25,1577-9621,경기도 동두천시 못골로 25,동두천시
제부도점,경기 화성시 서신면 해안길 284,1577-9621,경기도 화성시 서신면 해안길 284,화성시
마도청원점,경기 화성시 마도면 마도로 504,1577-9621,경기도 화성시 마도면 마도로 504,화성시
풍무역점,경기 김포시 김포대로679번길 14-4,1577-9621,경기도 김포시 김포대로679번길 14-4,김포시
광교레이크점,경기 수원시 영통구 법조로 38 B30호,1577-9621 소프트크림 판매점,경기도 수원시 영통구 법조로 38 B30호,수원시 영통구
부천심곡본점,경기 부천시 부천로65번길 34,1577-9621,경기도 부천시 부천로65번길 34,부천시
옥길퀸즈파크점,경기 부천시 옥길로 124 C동 1층 115호,1577-9621,경기도 부천시 옥길로 124 C동 1층 115호,부천시
안산화정초점,경기 안산시 단원구 화정천서로6길 13,1577-9621 소프트크림 판매점,경기도 안산시 단원구 화정천서로6길 13,안산시단원구
다산듀플렉스점,"경기 남양주시 다산중앙로123번길 22-56, 101호",1577-9621,"경기도 남양주시 다산중앙로123번길 22-56, 101호",남양주시
안산이동점,경기 안산시 상록구 석삼말로3길 10,1577-9621 소프트크림 판매점,경기도 안산시 상록구 석삼말로3길 10,안산시상록구
무송공단점,경기 화성시 남양읍 현대기아로 457,1577-9621,경기도 화성시 남양읍 현대기아로 457,화성시
우정조암점,경기 화성시 우정읍 3.1만세로 47,1577-9621 소프트크림 판매점,경기도 화성시 우정읍 3.1만세로 47,화성시
분당수내점,"경기 성남시 분당구 황새울로258번길 10-7, 101호",1577-9621,"경기도 성남시 분당구 황새울로258번길 10-7, 101호",성남시 분당구
삼송마을점,경기 고양시 덕양구 고양대로2002번길 15,1577-9621 소프트크림 판매점,경기도 고양시 덕양구 고양대로2002번길 15,고양시덕양구
호매실에비뉴점,"경기 수원시 권선구 금곡로197번길 18-24, 101호",1577-9621,"경기도 수원시 권선구 금곡로197번길 18-24, 101호",수원시 권선구
부천신일점,"경기 부천시 중동로254번길 64,119호",1577-9621 소프트크림 판매점,"경기도 부천시 중동로254번길 64,119호",부천시
송탄은성점,경기 평택시 쇼핑로 17-1,1577-9621,경기도 평택시 쇼핑로 17-1,평택시
마석우리점,경기 남양주시 화도읍 마석중앙로 51,1577-9621 소프트크림 판매점,경기도 남양주시 화도읍 마석중앙로 51,남양주시
법원스토리점,경기 파주시 법원읍 사임당로 883,1577-9621 소프트크림 판매점,경기도 파주시 법원읍 사임당로 883,파주시
화성팔탄덕우점,경기 화성시 팔탄면 온천로 153,1577-9621,경기도 화성시 팔탄면 온천로 153,화성시
동탄에이팩시티점,경기 화성시 동탄순환대로 823,1577-9621 소프트크림 판매점,경기도 화성시 동탄순환대로 823,화성시
용인백암점,경기 용인시 처인구 백암면 백암로 101,1577-9621 소프트크림 판매점,경기도 용인시 처인구 백암면 백암로 101,용인시처인구
송화원룸점,경기 평택시 팽성읍 송화택지로25번길 24,1577-9621,경기도 평택시 팽성읍 송화택지로25번길 24,평택시
와동무지개점,경기 안산시 단원구 사세충열로 14,1577-9621,경기도 안산시 단원구 사세충열로 14,안산시단원구
이천행궁점,경기 이천시 영창로193번길 22,1577-9621 소프트크림 판매점,경기도 이천시 영창로193번길 22,이천시
오산천점,"경기 오산시 경기대로333번길 30, 1층",1577-9621,"경기도 오산시 경기대로333번길 30, 1층",오산시
평택장당점,경기 평택시 송탄로40번길 71-2,1577-9621 소프트크림 판매점,경기도 평택시 송탄로40번길 71-2,평택시
군포공단점,"경기 군포시 공단로 143, 1층",1577-9621 소프트크림 판매점,"경기도 군포시 공단로 143, 1층",군포시
고양센터점,경기 고양시 덕양구 내유길 5,1577-9621,경기도 고양시 덕양구 내유길 5,고양시덕양구
적성센터점,경기 파주시 적성면 솥뒤로 6,1577-9621,경기도 파주시 적성면 솥뒤로 6,파주시
운양골든센터점,"경기 김포시 김포한강1로 250, 1층 110호",1577-9621,"경기도 김포시 김포한강1로 250, 1층 110호",김포시
부천IC점,경기 부천시 오정로 194 일광 오정파크 1층,1577-9621,경기도 부천시 오정로 194 일광 오정파크 1층,부천시
평택싸파점,경기 평택시 팽성읍 송화택지로 141,1577-9621,경기도 평택시 팽성읍 송화택지로 141,평택시
광교파인렉스점,"경기 수원시 영통구 대학3로4번길 2 파인렉스2차 110호,111호",1577-9621,"경기도 수원시 영통구 대학3로4번길 2 파인렉스2차 110호,111호",수원시 영통구
팽성대교점,경기 평택시 팽성읍 팽성대교길 178,1577-9621 소프트크림 판매점,경기도 평택시 팽성읍 팽성대교길 178,평택시
화성동남점,경기 화성시 정남면 만년로 438-11,1577-9621 소프트크림 판매점,경기도 화성시 정남면 만년로 438-11,화성시
안산호동점,경기 안산시 상록구 도매시장로3길 7,1577-9621 소프트크림 판매점,경기도 안산시 상록구 도매시장로3길 7,안산시상록구
안산21세기점,"경기 안산시 단원구 보배2길 37, 102호",1577-9621 소프트크림 판매점,"경기도 안산시 단원구 보배2길 37, 102호",안산시단원구
병점타운점,"경기 화성시 병점동로42번길 26,1층",1577-9621 소프트크림 판매점,"경기도 화성시 병점동로42번길 26,1층",화성시
김포고창마을점,"경기 김포시 김포한강3로237번길 16, 1층 103호",1577-9621 소프트크림 판매점,"경기도 김포시 김포한강3로237번길 16, 1층 103호",김포시
화성발안공단점,경기 화성시 향남읍 발안공단로5길 114,1577-9621 소프트크림 판매점,경기도 화성시 향남읍 발안공단로5길 114,화성시
배곧월드점,"경기 시흥시 배곧4로 32-19, 114호",1577-9621 소프트크림 판매점,"경기도 시흥시 배곧4로 32-19, 114호",시흥시
동탄호수공원점,"경기 화성시 동탄순환대로 127-23, 109호",1577-9621,"경기도 화성시 동탄순환대로 127-23, 109호",화성시
송탄스타힐스점,경기 평택시 목천로17번길 39-4,1577-9621,경기도 평택시 목천로17번길 39-4,평택시
시흥관광호텔점,경기 시흥시 평안상가4길 21,1577-9621,경기도 시흥시 평안상가4길 21,시흥시
용인명지로점,경기 용인시 처인구 명지로 150,1577-9621,경기도 용인시 처인구 명지로 150,용인시처인구
부천가톨릭대점,경기 부천시 지봉로34번길 22,1577-9621 소프트크림 판매점,경기도 부천시 지봉로34번길 22,부천시
광교대학로점,경기 수원시 영통구 대학1로50번길 12,1577-9621 소프트크림 판매점,경기도 수원시 영통구 대학1로50번길 12,수원시 영통구
안산각골점,경기 안산시 상록구 각골동로1길 1,1577-9621 소프트크림 판매점,경기도 안산시 상록구 각골동로1길 1,안산시상록구
안성인지점,경기 안성시 장기로69번길 28,1577-9621,경기도 안성시 장기로69번길 28,안성시
안양예술공원점,경기 안양시 만안구 예술공원로 170,1577-9621 소프트크림 판매점,경기도 안양시 만안구 예술공원로 170,안양시만안구
안양우성점,경기 안양시 만안구 박달로498번길 38,1577-9621,경기도 안양시 만안구 박달로498번길 38,안양시만안구
포천캐슬점,경기 포천시 호국로 1010-2 허브캐슬 3차 103동 101호,1577-9621,경기도 포천시 호국로 1010-2 허브캐슬 3차 103동 101호,포천시
파주웅담점,경기 파주시 법원읍 술이홀로 1677,1577-9621,경기도 파주시 법원읍 술이홀로 1677,파주시
동두천제일점,경기 동두천시 평화로 2348,1577-9621 소프트크림 판매점,경기도 동두천시 평화로 2348,동두천시
이천아리역로점,경기 이천시 아리역로15번길 3,1577-9621,경기도 이천시 아리역로15번길 3,이천시
화성청원점,경기 화성시 마도면 절골로 36,1577-9621 소프트크림 판매점,경기도 화성시 마도면 절골로 36,화성시
팔탄기천점,경기 화성시 팔탄면 건달산로 219-3,1577-9621,경기도 화성시 팔탄면 건달산로 219-3,화성시
벽제로드점,경기 고양시 덕양구 혜음로 172,1577-9621 소프트크림 판매점,경기도 고양시 덕양구 혜음로 172,고양시덕양구
사우라엘점,경기 김포시 중구로 12,1577-9621,경기도 김포시 중구로 12,김포시
마석오복점,경기 남양주시 화도읍 비룡로33번안길 1,1577-9621,경기도 남양주시 화도읍 비룡로33번안길 1,남양주시
동탄물류센터점,경기 화성시 동탄물류로 69,1577-9621,경기도 화성시 동탄물류로 69,화성시
모현센터점,"경기 용인시 처인구 모현읍 백옥대로2332번길 21-9,101호",1577-9621 소프트크림 판매점,"경기도 용인시 처인구 모현읍 백옥대로2332번길 21-9,101호",용인시처인구
서정인사이드점,경기 평택시 송탄2로 47,1577-9621 소프트크림 판매점,경기도 평택시 송탄2로 47,평택시
안산럭키점,"경기 안산시 상록구 정재로2길 5, 1층",1577-9621,"경기도 안산시 상록구 정재로2길 5, 1층",안산시상록구
여주현암점,경기 여주시 현암2길 28-10,1577-9621,경기도 여주시 현암2길 28-10,여주시
안양관평로점,경기 안양시 동안구 관평로327번길 23,1577-9621,경기도 안양시 동안구 관평로327번길 23,안양시동안구
군포첨단점,경기 군포시 번영로 44 삼덕빌딩 106호,1577-9621,경기도 군포시 번영로 44 삼덕빌딩 106호,군포시
안산원룸점,경기 안산시 상록구 삼태기로 6-1,1577-9621 소프트크림 판매점,경기도 안산시 상록구 삼태기로 6-1,안산시상록구
의정평화점,경기 의정부시 평화로484번길 18,1577-9621 소프트크림 판매점,경기도 의정부시 평화로484번길 18,의정부시
퇴계원역점,경기 남양주시 퇴계원면 경춘북로 544,1577-9621 소프트크림 판매점,경기도 남양주시 퇴계원면 경춘북로 544,남양주시
소사에이스점,경기 부천시 호현로 479,1577-9621 소프트크림 판매점,경기도 부천시 호현로 479,부천시
캠프통아일랜드점,경기 가평군 청평면 호반로 976,1577-9621,경기도 가평군 청평면 호반로 976,가평군
내유센터점,경기 고양시 덕양구 명봉산로6번길 20-5,1577-9621 소프트크림 판매점,경기도 고양시 덕양구 명봉산로6번길 20-5,고양시덕양구
영화센터점,경기 수원시 장안구 수성로382번길 14,1577-9621 소프트크림 판매점,경기도 수원시 장안구 수성로382번길 14,수원시 장안구
심곡제일점,경기 부천시 신흥로22번길 50,1577-9621,경기도 부천시 신흥로22번길 50,부천시
화성가재점,경기 화성시 팔탄면 삼천병마로 556,1577-9621,경기도 화성시 팔탄면 삼천병마로 556,화성시
탑동가온점,경기 수원시 권선구 탑동로48번길 12,1577-9621 소프트크림 판매점,경기도 수원시 권선구 탑동로48번길 12,수원시 권선구
고색산단2점,"경기 수원시 권선구 산업로 180 DH테크타워상가 121,122호",1577-9621 소프트크림 판매점,"경기도 수원시 권선구 산업로 180 DH테크타워상가 121,122호",수원시 권선구
고색산단1점,"경기 수원시 권선구 산업로 180 DH테크타워상가 115,116호",1577-9621,"경기도 수원시 권선구 산업로 180 DH테크타워상가 115,116호",수원시 권선구
인계복개천점,경기 수원시 팔달구 경수대로467번길 22,031-221-1999 소프트크림 판매점,경기도 수원시 팔달구 경수대로467번길 22,수원시 팔달구
안성중앙대학로점,"경기 안성시 대덕면 내리1길 3, 상가 101호",1577-9621 소프트크림 판매점,"경기도 안성시 대덕면 내리1길 3, 상가 101호",안성시
이천갈산우성점,경기 이천시 갈산로87번길 11,1577-9621,경기도 이천시 갈산로87번길 11,이천시
안양센트럴점,경기 안양시 만안구 냉천로175번길 22,1577-9621,경기도 안양시 만안구 냉천로175번길 22,안양시만안구
금곡산단점,경기 남양주시 진접읍 경복대로212번길 54,1577-9621,경기도 남양주시 진접읍 경복대로212번길 54,남양주시
서정타운점,"경기 평택시 정암로 10, 102호",1577-9621 소프트크림 판매점,"경기도 평택시 정암로 10, 102호",평택시
연천옥계점,경기 연천군 군남면 군중로 4,1577-9621 소프트크림 판매점,경기도 연천군 군남면 군중로 4,연천군
여주청심로점,경기 여주시 청심로 196,1577-9621 소프트크림 판매점,경기도 여주시 청심로 196,여주시
성남태평행복점,경기 성남시 수정구 탄리로95번길 23,1577-9621 소프트크림 판매점,경기도 성남시 수정구 탄리로95번길 23,성남시 수정구
오산세마점,"경기 오산시 세마역로 95 세교테라스뷰 상가 113,114호",1577-9621,"경기도 오산시 세마역로 95 세교테라스뷰 상가 113,114호",오산시
김포양촌마을점,"경기 김포시 양촌읍 양곡2로30번길 79, 아파트내상가 101호,102호",1577-9621,"경기도 김포시 양촌읍 양곡2로30번길 79, 아파트내상가 101호,102호",김포시
신곡빌리지점,경기 의정부시 발곡로31번길 27-8,1577-9621 소프트크림 판매점,경기도 의정부시 발곡로31번길 27-8,의정부시
용인초당역점,"경기 용인시 기흥구 동백중앙로 61-19, 107/108호(중동 1043-1)",1577-9621 소프트크림 판매점,"경기도 용인시 기흥구 동백중앙로 61-19, 107/108호(중동 1043-1)",용인시기흥구
안성내리센터점,"경기 안성시 대덕면 내리7길 21, 청룡오피스텔B01호(대덕면 내리715-1)",1577-9621,"경기도 안성시 대덕면 내리7길 21, 청룡오피스텔B01호(대덕면 내리715-1)",안성시
다산한신점,경기 남양주시 미금로56번길 11,1577-9621 소프트크림 판매점,경기도 남양주시 미금로56번길 11,남양주시
이천병원점,경기 이천시 관고재로15번길 11,1577-9621,경기도 이천시 관고재로15번길 11,이천시
마석IC점,경기 남양주시 화도읍 녹촌로 128-17,1577-9621,경기도 남양주시 화도읍 녹촌로 128-17,남양주시
평택내기삼거리점,경기 평택시 포승읍 서동대로 1152,1577-9621,경기도 평택시 포승읍 서동대로 1152,평택시
수원병무청점,경기 수원시 팔달구 고화로 129 (화서동58-3외1필지) 동원블루밍101동 201호,1577-9621 소프트크림 판매점,경기도 수원시 팔달구 고화로 129 (화서동58-3외1필지) 동원블루밍101동 201호,수원시 팔달구
안산와동타운점,"경기 안산시 단원구 화정천동로1길 6, 1층",1577-9621,"경기도 안산시 단원구 화정천동로1길 6, 1층",안산시단원구
화성이화점,경기 화성시 우정읍 매화길 3,1577-9621,경기도 화성시 우정읍 매화길 3,화성시
평택원정점,경기 평택시 포승읍 평택항로 492,1577-9621 소프트크림 판매점,경기도 평택시 포승읍 평택항로 492,평택시
포천동교점,경기 포천시 원동교길 157,1577-9621,경기도 포천시 원동교길 157,포천시
SH동삭점,경기 평택시 동삭로 386,1577-9621,경기도 평택시 동삭로 386,평택시
정왕세일점,"경기 시흥시 정왕대로337번안길 2, 1층",1577-9621 소프트크림 판매점,"경기도 시흥시 정왕대로337번안길 2, 1층",시흥시
새꽃마을점,경기 파주시 새꽃로 35,1577-9621,경기도 파주시 새꽃로 35,파주시
화성시청점,"경기 화성시 남양읍 남양로 695, 1층 106,107호",1577-9621,"경기도 화성시 남양읍 남양로 695, 1층 106,107호",화성시
정왕원룸점,"경기 시흥시 오동마을로5번길 25, 1층",1577-9621 소프트크림 판매점,"경기도 시흥시 오동마을로5번길 25, 1층",시흥시
시흥하늘휴게소점,경기 시흥시 서울외곽순환고속도로 105-1 시흥본선상공형휴게소 일산방향,1577-9621,경기도 시흥시 서울외곽순환고속도로 105-1 시흥본선상공형휴게소 일산방향,시흥시
의정부용로점,경기 의정부시 부용로203번길 28,1577-9621 소프트크림 판매점,경기도 의정부시 부용로203번길 28,의정부시
율정8단지점,"경기 양주시 옥정동로 258 옥정천년나무 8단지 제상가동 103호,104호",1577-9621,"경기도 양주시 옥정동로 258 옥정천년나무 8단지 제상가동 103호,104호",양주시
오산센터점,경기 오산시 원동로7번길 34,1577-9621 소프트크림 판매점,경기도 오산시 원동로7번길 34,오산시
화성삼신점,"경기 화성시 화산중앙로64번길 3 삼신빌딩 1층 (106호,107호)",1577-9621,"경기도 화성시 화산중앙로64번길 3 삼신빌딩 1층 (106호,107호)",화성시
이천마장점,경기 이천시 마장면 서이천로 83,1577-9621 소프트크림 판매점,경기도 이천시 마장면 서이천로 83,이천시
수원성균관대점,"경기 수원시 장안구 화산로233번길 42, 1층",1577-9621 소프트크림 판매점,"경기도 수원시 장안구 화산로233번길 42, 1층",수원시 장안구
정왕드림시티점,경기 시흥시 역전로 300 101호,1577-9621 소프트크림 판매점,경기도 시흥시 역전로 300 101호,시흥시
광주능평점,경기 광주시 오포읍 대명대길 8,1577-9621,경기도 광주시 오포읍 대명대길 8,광주시
부천파크리움점,"경기 부천시 중동로248번길 45, 센트럴파크리움 1층 108호",1577-9621,"경기도 부천시 중동로248번길 45, 센트럴파크리움 1층 108호",부천시
안산시티점,"경기 안산시 단원구 당곡로 33, 상가동 117,118호",1577-9621 소프트크림 판매점,"경기도 안산시 단원구 당곡로 33, 상가동 117,118호",안산시단원구
남양주삼신점,경기 남양주시 진접읍 봉현로36번길 21,1577-9621,경기도 남양주시 진접읍 봉현로36번길 21,남양주시
경동해피점,"경기 수원시 영통구 에듀타운로 108 경동해피리움오피스텔 상가 113,114호",1577-9621,"경기도 수원시 영통구 에듀타운로 108 경동해피리움오피스텔 상가 113,114호",수원시 영통구
기흥구청점,경기 용인시 기흥구 구갈로72번길 14-1 서안빌딩 1층 102호,1577-9621 소프트크림 판매점,경기도 용인시 기흥구 구갈로72번길 14-1 서안빌딩 1층 102호,용인시기흥구
교하빌리지점,경기 파주시 구절초길 37,1577-9621,경기도 파주시 구절초길 37,파주시
어연산단점,경기 평택시 청북읍 청북산단로 50,1577-9621 소프트크림 판매점,경기도 평택시 청북읍 청북산단로 50,평택시
수원여대인제점,경기 수원시 권선구 온정로 72,1577-9621,경기도 수원시 권선구 온정로 72,수원시 권선구
안산패션타운점,"경기 안산시 상록구 천문3길 11, 1층",1577-9621 소프트크림 판매점,"경기도 안산시 상록구 천문3길 11, 1층",안산시상록구
수원여대해란점,경기 화성시 봉담읍 주석로 1098,1577-9621,경기도 화성시 봉담읍 주석로 1098,화성시
평택용이대로점,경기 평택시 현신3길 6,1577-9621 소프트크림 판매점,경기도 평택시 현신3길 6,평택시
별내용암천점,"경기 남양주시 별내3로 161 별사랑마을 2-7단지 상가동 102,103,104호",1577-9621 소프트크림 판매점,"경기도 남양주시 별내3로 161 별사랑마을 2-7단지 상가동 102,103,104호",남양주시
용인영화점,"경기 용인시 처인구 경안천로256번길 47-12 임원마을 아파트 제상가동 101호,102호",1577-9621,"경기도 용인시 처인구 경안천로256번길 47-12 임원마을 아파트 제상가동 101호,102호",용인시처인구
양주옥정점,"경기 양주시 옥정동로 257, 율정마을 7단지 제상가동 106,107,108호",1577-9621 소프트크림 판매점,"경기도 양주시 옥정동로 257, 율정마을 7단지 제상가동 106,107,108호",양주시
광주노곡점,경기 광주시 도척면 도척윗로 290-7,1577-9621,경기도 광주시 도척면 도척윗로 290-7,광주시
시흥하나점,"경기 시흥시 삼미시장4길 17, 1층",1577-9621,"경기도 시흥시 삼미시장4길 17, 1층",시흥시
김포학운점,경기 김포시 양촌읍 황금로109번길 80,1577-9621 소프트크림 판매점,경기도 김포시 양촌읍 황금로109번길 80,김포시
수원3공단점,경기 수원시 권선구 산업로156번길 201,1577-9621 소프트크림 판매점,경기도 수원시 권선구 산업로156번길 201,수원시 권선구
시흥봉우재로점,"경기 시흥시 봉우재로36번길 8, 1층",1577-9621,"경기도 시흥시 봉우재로36번길 8, 1층",시흥시
일죽IC점,"경기 안성시 일죽면 내둔길 40, 나동",1577-9621,"경기도 안성시 일죽면 내둔길 40, 나동",안성시
동탄골드점,"경기 화성시 동탄하나1길 47-3, 103, 104, 105호",1577-9621,"경기도 화성시 동탄하나1길 47-3, 103, 104, 105호",화성시
안산시낭북로점,"경기 안산시 상록구 시낭북로4길 11, 1층",1577-9621 소프트크림 판매점,"경기도 안산시 상록구 시낭북로4길 11, 1층",안산시상록구
식사블루밍점,"경기 고양시 일산동구 위시티3로 73, 1층",1577-9621 소프트크림 판매점,"경기도 고양시 일산동구 위시티3로 73, 1층",안산시상록구
안산황금점,경기 안산시 단원구 보화로 10,1577-9621 소프트크림 판매점,경기도 안산시 단원구 보화로 10,안산시단원구
향남부영점,경기 화성시 향남읍 하길로 70 부영 10단지 상가 101,1577-9621 소프트크림 판매점,경기도 화성시 향남읍 하길로 70 부영 10단지 상가 101,화성시
와동스타점,경기 안산시 단원구 와동로 42,1577-9621 소프트크림 판매점,경기도 안산시 단원구 와동로 42,안산시단원구
봉담센터점,"경기 화성시 봉담읍 동화길 93-6, 제1층 제 104,105호",1577-9621,"경기도 화성시 봉담읍 동화길 93-6, 제1층 제 104,105호",화성시
수원능실점,"경기 수원시 권선구 호매실로166번길 63, 101호,102호",1577-9621,"경기도 수원시 권선구 호매실로166번길 63, 101호,102호",수원시 권선구
평택물류단지점,경기 평택시 도일유통길 21-1,1577-9621,경기도 평택시 도일유통길 21-1,평택시
시흥제일점,"경기 시흥시 정왕천로375번길 4-11, 1층",1577-9621,"경기도 시흥시 정왕천로375번길 4-11, 1층",시흥시
용인상하점,"경기 용인시 기흥구 중부대로747번길 17,1층",1577-9621,"경기도 용인시 기흥구 중부대로747번길 17,1층",용인시기흥구
청평청구점,경기 가평군 청평면 경춘로 819-21,1577-9621,경기도 가평군 청평면 경춘로 819-21,가평군
호평루첸점,"경기 남양주시 천마산로 25 호평동대명루첸아파트 상가동 109호, 110호",1577-9621 소프트크림 판매점,"경기도 남양주시 천마산로 25 호평동대명루첸아파트 상가동 109호, 110호",남양주시
안산송호점,경기 안산시 상록구 송호1길 53,1577-9621,경기도 안산시 상록구 송호1길 53,안산시상록구
일산웨스턴점,"경기 고양시 일산동구 정발산로 23, 102호, 103호",1577-9621 소프트크림 판매점,"경기도 고양시 일산동구 정발산로 23, 102호, 103호",안산시상록구
사강터미널점,경기 화성시 송산면 송산포도로 104,1577-9621,경기도 화성시 송산면 송산포도로 104,화성시
월피센터점,"경기 안산시 상록구 예술광장로 7, 101호",1577-9621,"경기도 안산시 상록구 예술광장로 7, 101호",안산시상록구
정남대로점,경기 화성시 정남면 정남동로 170,1577-9621 소프트크림 판매점,경기도 화성시 정남면 정남동로 170,화성시
신천초교로점,"경기 시흥시 포도원로79번길 2, 102호, 103호",1577-9621,"경기도 시흥시 포도원로79번길 2, 102호, 103호",시흥시
수지신봉점,경기 용인시 수지구 신봉2로 60 웰스토시티앤애비뉴 2동 B116호,1577-9621 소프트크림 판매점,경기도 용인시 수지구 신봉2로 60 웰스토시티앤애비뉴 2동 B116호,용인시수지구
월곶중앙점,경기 시흥시 월곶중앙로 58,031-318-8222,경기도 시흥시 월곶중앙로 58,시흥시
화성남양점,경기도 화성시 남양읍 남양시장로66번길 2,1577-9621,경기도 화성시 남양읍 남양시장로66번길 2,화성시
송탄서해점,경기 평택시 점촌1로58번길 30 (서정동),1577-9621,경기도 평택시 점촌1로58번길 30 (서정동),평택시
오산점,"경기 오산시 운천로165번길 3,1층",1577-9621,"경기도 오산시 운천로165번길 3,1층",오산시
파주창만점,경기도 파주시 광탄면 만장산로 234,1577-9621,경기도 파주시 광탄면 만장산로 234,파주시
화성본점,경기도 화성시 정남면 서봉로 1006,1577-9621,경기도 화성시 정남면 서봉로 1006,화성시
군포삼성점,"경기 군포시 삼성로 41 상가동 제1층 101,102호",1577-9621,"경기도 군포시 삼성로 41 상가동 제1층 101,102호",군포시
의왕포일점,경기 의왕시 흥안대로456번길 122,1577-9621,경기도 의왕시 흥안대로456번길 122,의왕시
동탄뷰파크점,"경기 화성시 동탄원천로 382-37 상가2동 102,103호",1577-9621,"경기도 화성시 동탄원천로 382-37 상가2동 102,103호",화성시
심곡중앙점,경기 부천시 원미로17번길 43,1577-9621,경기도 부천시 원미로17번길 43,부천시
안성원곡점,경기 안성시 원곡면 가천중앙1길 59,031-657-7279,경기도 안성시 원곡면 가천중앙1길 59,안성시
안성미양점,경기 안성시 미양면 안성맞춤대로 368,1577-9621,경기도 안성시 미양면 안성맞춤대로 368,안성시
시흥과림점,경기 시흥시 금오로 485,02-2613-0065,경기도 시흥시 금오로 485,시흥시
삼성시티점,경기 화성시 삼성1로 160,031-613-8961,경기도 화성시 삼성1로 160,화성시
당정역점,"경기 군포시 군포역1길 186 상가1중코너(당동, 대흥아파트상가)",1577-9621,"경기도 군포시 군포역1길 186 상가1중코너(당동, 대흥아파트상가)",군포시
광명역점,경기 광명시 오리로985번길 8,02-2612-8643,경기도 광명시 오리로985번길 8,광명시
내손팬텀점,경기 의왕시 계원대학로 25,1577-9621,경기도 의왕시 계원대학로 25,의왕시
평촌점,경기 안양시 동안구 관평로182번길 17,031-388-9401,경기도 안양시 동안구 관평로182번길 17,안양시동안구
구리번영점,경기 구리시 체육관로80번길 19,031-551-8245,경기도 구리시 체육관로80번길 19,구리시
구리원일점,경기 구리시 동구릉로53번길 79,1577-9621,경기도 구리시 동구릉로53번길 79,구리시
수원매여울점,경기 수원시 영통구 매여울로68번길 2,1577-9621,경기도 수원시 영통구 매여울로68번길 2,수원시 영통구
양주휴게소점,경기 양주시 장흥면 서울외곽순환고속도로 58 양주간이휴게시설,1577-9621,경기도 양주시 장흥면 서울외곽순환고속도로 58 양주간이휴게시설,양주시
진안대풍점,경기 화성시 병점동로 110-11,1577-9621,경기도 화성시 병점동로 110-11,화성시
시화공단점,"경기 시흥시 정왕천로 197 디지털파크 139,155호",1577-9621,"경기도 시흥시 정왕천로 197 디지털파크 139,155호",시흥시
분당타운점,경기 성남시 분당구 분당로311번길 6,1577-9621,경기도 성남시 분당구 분당로311번길 6,성남시 분당구
의정부중앙점,경기도 의정부시 시민로122번길 11,1577-9621,경기도 의정부시 시민로122번길 11,의정부시
태안안녕점,경기도 화성시 안녕남로 140,1577-9621,경기도 화성시 안녕남로 140,화성시
김포원산점,경기 김포시 하성면 월하로 633,031-996-4799 소프트크림 판매점,경기도 김포시 하성면 월하로 633,김포시
안산예스점,경기 안산시 상록구 후곡로 23,031-406-2972 소프트크림 판매점,경기도 안산시 상록구 후곡로 23,안산시상록구
이천중리점,경기 이천시 남천로 42,1577-9621,경기도 이천시 남천로 42,이천시
안산본원점,"경기 안산시 상록구 충장로2길 16, 1층",1577-9621 소프트크림 판매점,"경기도 안산시 상록구 충장로2길 16, 1층",안산시상록구
구리인창점,경기 구리시 건원대로 42,1577-9621,경기도 구리시 건원대로 42,구리시
일산주엽점,경기 고양시 일산서구 중앙로 1376 (주엽동),1577-9621 소프트크림 판매점,경기도 고양시 일산서구 중앙로 1376 (주엽동),구리시
원흥주공점,경기도 고양시 덕양구 도래울로 16 LH도래울마을6단지 101,1577-9621 소프트크림 판매점,경기도 고양시 덕양구 도래울로 16 LH도래울마을6단지 101,고양시덕양구
판교타워점,경기 성남시 분당구 판교로227번길 6 (삼평동 617 109호),1577-9621 소프트크림 판매점,경기도 성남시 분당구 판교로227번길 6 (삼평동 617 109호),성남시 분당구
화성사강점,경기도 화성시 송산면 사강시장길 52,1577-9621,경기도 화성시 송산면 사강시장길 52,화성시
판교점,경기 성남시 분당구 판교역로 235,031-696-7669 소프트크림 판매점,경기도 성남시 분당구 판교역로 235,성남시 분당구
안산성포점,경기 안산시 상록구 화랑로 501,031-480-3795,경기도 안산시 상록구 화랑로 501,안산시상록구
기아화성점,경기 화성시 우정읍 기아자동차로 95,031-351-1704,경기도 화성시 우정읍 기아자동차로 95,화성시
포승원정점,경기 평택시 포승읍 호암길 3,1577-9621,경기도 평택시 포승읍 호암길 3,평택시
부천테크노점,경기 부천시 석천로 397 부천테크노파크 쌍용 3차 203동 202호,1577-9621 소프트크림 판매점,경기도 부천시 석천로 397 부천테크노파크 쌍용 3차 203동 202호,부천시
수원하이엔드점,경기 수원시 팔달구 효원로 299,1577-9621,경기도 수원시 팔달구 효원로 299,수원시 팔달구
포승본점,경기 평택시 포승읍 여술4길 18-22,1577-9621 소프트크림 판매점,경기도 평택시 포승읍 여술4길 18-22,평택시
범박휴먼시아점,경기 부천시 양지로 20 범박휴먼시아1단지 상가동 1층 105호,1577-9621,경기도 부천시 양지로 20 범박휴먼시아1단지 상가동 1층 105호,부천시
시흥정왕점,"경기 시흥시 정왕천로359번길 30, 1층",1577-9621,"경기도 시흥시 정왕천로359번길 30, 1층",시흥시
오이도등대점,경기 시흥시 오이도로157번길 4,1577-9621 소프트크림 판매점,경기도 시흥시 오이도로157번길 4,시흥시
성남대성점,경기 성남시 중원구 광명로 17,031-754-3741,경기도 성남시 중원구 광명로 17,성남시 중원구
민락부용점,경기도 의정부시 오목로 251 부용마을3단지상가 102호,1577-9621 소프트크림 판매점,경기도 의정부시 오목로 251 부용마을3단지상가 102호,의정부시
분당판테온점,경기 성남시 분당구 황새울로200번길 9-7,1577-9621,경기도 성남시 분당구 황새울로200번길 9-7,성남시 분당구
트리플타워점,경기 부천시 소향로253번길 17,032-324-6306 소프트크림 판매점,경기도 부천시 소향로253번길 17,부천시
철산점,"경기도 광명시 디지털로33번길 5,105,106,107호",1577-9621 소프트크림 판매점,"경기도 광명시 디지털로33번길 5,105,106,107호",광명시
양주석우점,경기 양주시 광적면 광적로 151,031-871-0897,경기도 양주시 광적면 광적로 151,양주시
과천타워점,경기 과천시 별양상가1로 10 과천타워 109호 (별양동),1577-9621,경기도 과천시 별양상가1로 10 과천타워 109호 (별양동),과천시
김포율생점,경기 김포시 대곶면 율생중앙로 33,1577-9621,경기도 김포시 대곶면 율생중앙로 33,김포시
부천광장점,경기 부천시 부천로10번길 13,032-611-3884,경기도 부천시 부천로10번길 13,부천시
오산본점,경기 오산시 궐리사로46번길 60-11,1577-9621,경기도 오산시 궐리사로46번길 60-11,오산시
원곡다문화점,경기도 안산시 단원구 중앙대로 489,1577-9621,경기도 안산시 단원구 중앙대로 489,안산시단원구
월곶센타점,경기 시흥시 월곶중앙로 71,1577-9621,경기도 시흥시 월곶중앙로 71,시흥시
역곡남부점,경기 부천시 부광로 10,1577-9621,경기도 부천시 부광로 10,부천시
고잔로데오점,경기 안산시 단원구 광덕2로 163-11,1577-9621,경기도 안산시 단원구 광덕2로 163-11,안산시단원구
안산중앙역점,경기 안산시 단원구 고잔로 108,031-405-3336,경기도 안산시 단원구 고잔로 108,안산시단원구
광주초월점,경기 광주시 초월읍 산수로 500,1577-9621,경기도 광주시 초월읍 산수로 500,광주시
수원파장점,경기 수원시 장안구 장안로 264-11 (정자동),1577-9621,경기도 수원시 장안구 장안로 264-11 (정자동),수원시 장안구
소사삼익점,"경기 부천시 안곡로 4 삼익아파트 상가동 107호,108호,109호",1577-9621,"경기도 부천시 안곡로 4 삼익아파트 상가동 107호,108호,109호",부천시
송탄지산점,경기 평택시 탄현로 338-1,1577-9621,경기도 평택시 탄현로 338-1,평택시
판테온리젠시점,경기도 성남시 분당구 백현로 100 (정자동) 판테온리젠시 1층,031-785-7014,경기도 성남시 분당구 백현로 100 (정자동) 판테온리젠시 1층,성남시 분당구
파주신안점,경기도 파주시 아동로 46-14  (아동동 325-3),1577-9621,경기도 파주시 아동로 46-14 (아동동 325-3),파주시
양주백석점,경기 양주시 백석읍 부흥로 957,031-877-5598,경기도 양주시 백석읍 부흥로 957,양주시
성남우림점,경기 성남시 중원구 갈마치로 302 우림라이온스밸리5차 B동 204호,1577-9621,경기도 성남시 중원구 갈마치로 302 우림라이온스밸리5차 B동 204호,성남시 중원구
파주영장점,경기 파주시 광탄면 보광로 623-22,1577-9621,경기도 파주시 광탄면 보광로 623-22,파주시
여주능서점,경기 여주시 능서면 마장로 68,031-881-4350,경기도 여주시 능서면 마장로 68,여주시
홍죽산단점,경기도 양주시 백석읍 권율로 1307,1577-9621,경기도 양주시 백석읍 권율로 1307,양주시
하남덕풍점,경기 하남시 신장로 168,1577-9621,경기도 하남시 신장로 168,하남시
서현점,경기 성남시 분당구 황새울로342번길 19,031-707-2864,경기도 성남시 분당구 황새울로342번길 19,성남시 분당구
화성만년로점,경기 화성시 향남읍 만년로 199,1577-9621,경기도 화성시 향남읍 만년로 199,화성시
엠파이어1호점,경기 수원시 영통구 신원로 88,031-695-6563,경기도 수원시 영통구 신원로 88,수원시 영통구
별내별사랑점,"경기 남양주시 별내3로 251 별사랑마을 2-10단지 상가동 102,103호",1577-9621,"경기도 남양주시 별내3로 251 별사랑마을 2-10단지 상가동 102,103호",남양주시
안중성심점,"경기 평택시 안중읍 안현로서6길 10 (현화리, 1층)",1577-9621 소프트크림 판매점,"경기도 평택시 안중읍 안현로서6길 10 (현화리, 1층)",평택시
평택지산점,경기도 평택시 송탄로361번길 39,1577-9621 소프트크림 판매점,경기도 평택시 송탄로361번길 39,평택시
트리플렉스점,경기 안산시 단원구 풍전로 37-9 트리플렉스에이단지 301동 137호,031-8084-4989 소프트크림 판매점,경기도 안산시 단원구 풍전로 37-9 트리플렉스에이단지 301동 137호,안산시단원구
별내한별점,"경기 남양주시 별내4로 62 별빛마을 3-5단지 제상가동 102,103호",1577-9621,"경기도 남양주시 별내4로 62 별빛마을 3-5단지 제상가동 102,103호",남양주시
소사본점,경기 부천시 소사로102번길 66,032-347-8676 소프트크림 판매점,경기도 부천시 소사로102번길 66,부천시
소사점,경기 부천시 은성로 86,032-345-1660 소프트크림 판매점,경기도 부천시 은성로 86,부천시
의정부헤드원점,경기 의정부시 평화로 554 헤드원호텔 1층 101호,1577-9621,경기도 의정부시 평화로 554 헤드원호텔 1층 101호,의정부시
안양갤럭시점,경기 안양시 만안구 만안로 61 갤럭시 뷰 101호,1577-9621 소프트크림 판매점,경기도 안양시 만안구 만안로 61 갤럭시 뷰 101호,안양시만안구
평촌펜테리움2점,경기도 안양시 동안구 학의로 282,1577-9621,경기도 안양시 동안구 학의로 282,안양시동안구
일산본점,경기도 고양시 일산서구 대산로 214,031-917-7664 소프트크림 판매점,경기도 고양시 일산서구 대산로 214,안양시동안구
김포마송점,경기 김포시 통진읍 조강로 86,1577-9621 소프트크림 판매점,경기도 김포시 통진읍 조강로 86,김포시
성남구시청점,경기 성남시 수정구 수정로 172,031-756-3390 소프트크림 판매점,경기도 성남시 수정구 수정로 172,성남시 수정구
성남중동점,경기 성남시 중원구 산성대로 348,1577-9621 소프트크림 판매점,경기도 성남시 중원구 산성대로 348,성남시 중원구
성남선텍점,경기 성남시 중원구 둔촌대로 474 선텍시티아파트형 공장 1층 B101호,1577-9621 소프트크림 판매점,경기도 성남시 중원구 둔촌대로 474 선텍시티아파트형 공장 1층 B101호,성남시 중원구
성남운동장점,경기 성남시 중원구 광명로 56 (성남동 2293),1577-9621 소프트크림 판매점,경기도 성남시 중원구 광명로 56 (성남동 2293),성남시 중원구
진접해밀점,경기 남양주시 진접읍 해밀예당3로 60,1577-9621 소프트크림 판매점,경기도 남양주시 진접읍 해밀예당3로 60,남양주시
진접금곡점,경기 남양주시 진접읍 해밀예당2로 117,1577-9621 소프트크림 판매점,경기도 남양주시 진접읍 해밀예당2로 117,남양주시
중산하늘점,"경기도 고양시 일산동구 중산로 101 하늘마을1단지 상가동 101, 102호",1577-9621 소프트크림 판매점,"경기도 고양시 일산동구 중산로 101 하늘마을1단지 상가동 101, 102호",남양주시
인덕원2점,경기 안양시 동안구 흥안대로517번길 32,1577-9621 소프트크림 판매점,경기도 안양시 동안구 흥안대로517번길 32,안양시동안구
안산상아점,경기 안산시 단원구 고잔1길 63,031-410-7507,경기도 안산시 단원구 고잔1길 63,안산시단원구
파주용미점,경기도 파주시 광탄면 장지산로 111,031-941-4119,경기도 파주시 광탄면 장지산로 111,파주시
파주교하점,경기 파주시 교하로 1357,1577-9621,경기도 파주시 교하로 1357,파주시
초림한솔점,경기 성남시 분당구 황새울로200번길 22,1577-9621,경기도 성남시 분당구 황새울로200번길 22,성남시 분당구
오정성진점,경기 부천시 부천로476번길 83 (오정동),1577-9621,경기도 부천시 부천로476번길 83 (오정동),부천시
안성중앙대점,경기 안성시 대덕면 서동대로 4726,031-676-4307,경기도 안성시 대덕면 서동대로 4726,안성시
평택비전2점,경기도 평택시 평남로 709,1577-9621,경기도 평택시 평남로 709,평택시
부천북부점,경기 부천시 부일로 434,1577-9621,경기도 부천시 부일로 434,부천시
안성내리중앙점,경기 안성시 대덕면 내리6길 6,031-372-6371,경기도 안성시 대덕면 내리6길 6,안성시
권선중앙점,경기 수원시 권선구 장다리로 109,1577-9621,경기도 수원시 권선구 장다리로 109,수원시 권선구
정왕공원점,경기도 시흥시 봉우재로69번길 9,031-497-9188 소프트크림 판매점,경기도 시흥시 봉우재로69번길 9,시흥시
이천테르메덴점,경기 이천시 모가면 사실로 1038,031-631-1157,경기도 이천시 모가면 사실로 1038,이천시
매탄매화점,경기 수원시 영통구 매여울로53번길 77,1577-9621,경기도 수원시 영통구 매여울로53번길 77,수원시 영통구
의정부파크점,경기 의정부시 평화로551번길 13,1577-9621,경기도 의정부시 평화로551번길 13,의정부시
하남신장점,경기도 하남시 신장로 97,1577-9621,경기도 하남시 신장로 97,하남시
이천설봉공원점,경기도 이천시 설봉로 37,031-635-5799 소프트크림 판매점,경기도 이천시 설봉로 37,이천시
화성한미점,경기도 화성시 팔탄면 무하로 221,031-356-8986,경기도 화성시 팔탄면 무하로 221,화성시
수원영화점,경기 수원시 장안구 수성로364번길 53,031-251-6160,경기도 수원시 장안구 수성로364번길 53,수원시 장안구
갈마터널점,경기 광주시 순암로 496,031-761-8959,경기도 광주시 순암로 496,광주시
구리토평점,경기 구리시 벌말로147번길 34-17,1577-9621 소프트크림 판매점,경기도 구리시 벌말로147번길 34-17,구리시
기흥보라점,"경기 용인시 기흥구 한보라2로 170, 104호,105호",1577-9621 소프트크림 판매점,"경기도 용인시 기흥구 한보라2로 170, 104호,105호",용인시기흥구
용인진흥점,경기 용인시 기흥구 중부대로746번길 21 상가동 107호,1577-9621,경기도 용인시 기흥구 중부대로746번길 21 상가동 107호,용인시기흥구
수원정자점,경기 수원시 장안구 장안로103번길 3 (정자동),031-241-2208 소프트크림 판매점,경기도 수원시 장안구 장안로103번길 3 (정자동),수원시 장안구
광주목동점,경기 광주시 광남안로 8 (태전동 359-23),031-767-9021 소프트크림 판매점,경기도 광주시 광남안로 8 (태전동 359-23),광주시
청북부영점,경기 평택시 청북읍 안청로1길 92,1577-9621 소프트크림 판매점,경기도 평택시 청북읍 안청로1길 92,평택시
남양주금남점,경기 남양주시 화도읍 북한강로 1501,1577-9621 소프트크림 판매점,경기도 남양주시 화도읍 북한강로 1501,남양주시
탑동중앙점,경기 수원시 권선구 탑동로 1,1577-9621,경기도 수원시 권선구 탑동로 1,수원시 권선구
성남모란역점,경기 성남시 중원구 성남대로1147번길 6-1,1577-9621,경기도 성남시 중원구 성남대로1147번길 6-1,성남시 중원구
수원고등점,경기 수원시 팔달구 고화로39번길 73,031-252-4498,경기도 수원시 팔달구 고화로39번길 73,수원시 팔달구
인계하이엘점,경기 수원시 팔달구 효원로219번길 48,031-223-4302,경기도 수원시 팔달구 효원로219번길 48,수원시 팔달구
광주경안점,경기 광주시 경안천로 150,070-7785-2325,경기도 광주시 경안천로 150,광주시
포승타운점,경기도 평택시 포승읍 여술1길 76  카임하우스 1층 104호,1577-9621,경기도 평택시 포승읍 여술1길 76 카임하우스 1층 104호,평택시
시흥현대점,경기 시흥시 수인로3409번길 46 현대아파트 상가동 제1층,1577-9621,경기도 시흥시 수인로3409번길 46 현대아파트 상가동 제1층,시흥시
운정본점,경기 파주시 가온로 243 가람마을10단지 동양엠파트 월드메르디앙 501-109,1577-9621,경기도 파주시 가온로 243 가람마을10단지 동양엠파트 월드메르디앙 501-109,파주시
안산광덕로점,"경기 안산시 상록구 광덕산2로 37, 102호",031-402-3281,"경기도 안산시 상록구 광덕산2로 37, 102호",안산시상록구
시흥물왕점,경기 시흥시 금화로 461,031-405-7773,경기도 시흥시 금화로 461,시흥시
평촌대림점,경기도 안양시 동안구 평의길 33,031-424-9528,경기도 안양시 동안구 평의길 33,안양시동안구
김포애기봉점,경기 김포시 월곶면 애기봉로 472,031-998-4745,경기도 김포시 월곶면 애기봉로 472,김포시
안산데코점,"경기 안산시 상록구 광덕1로 355 (129, 136호)",1577-9621,"경기도 안산시 상록구 광덕1로 355 (129, 136호)",안산시상록구
평촌베스티움점,경기도 안양시 동안구 시민대로 281,031-383-0102,경기도 안양시 동안구 시민대로 281,안양시동안구
메가밸리점,경기 안양시 동안구 학의로 268 메가밸리 S103호,1577-9621,경기도 안양시 동안구 학의로 268 메가밸리 S103호,안양시동안구
수원매탄점,경기 수원시 영통구 인계로 293-1,1577-9621,경기도 수원시 영통구 인계로 293-1,수원시 영통구
용인동천점,경기 용인시 수지구 동천로63번길 10,031-285-0773,경기도 용인시 수지구 동천로63번길 10,용인시수지구
동아방송대점,경기 안성시 삼죽면 서동대로 6321,1577-9621 소프트크림 판매점,경기도 안성시 삼죽면 서동대로 6321,안성시
판교웰츠점,경기도 성남시 분당구 분당내곡로 155 (삼평동),1577-9621,경기도 성남시 분당구 분당내곡로 155 (삼평동),성남시 분당구
발안동오점,경기 화성시 향남읍 발안로 378,1577-9621,경기도 화성시 향남읍 발안로 378,화성시
포천일동점,경기 포천시 일동면 화동로1063번길 1-4,1577-9621,경기도 포천시 일동면 화동로1063번길 1-4,포천시
화성창곡점,경기도 화성시 팔탄면 푸른들판로 959,1577-9621,경기도 화성시 팔탄면 푸른들판로 959,화성시
안양수촌점,경기 안양시 동안구 관평로305번길 50 (관양동),1577-9621,경기도 안양시 동안구 관평로305번길 50 (관양동),안양시동안구
구리주공점,"경기 구리시 건원대로76번길 77 ,101호",1577-9621,"경기도 구리시 건원대로76번길 77 ,101호",구리시
영화북문점,경기 수원시 장안구 팔달로259번길 18,031-248-2333,경기도 수원시 장안구 팔달로259번길 18,수원시 장안구
문산본점,경기 파주시 문산읍 사임당로 65,1577-9621,경기도 파주시 문산읍 사임당로 65,파주시
양평용문역점,경기 양평군 용문면 용문시장3길 9,1577-9621,경기도 양평군 용문면 용문시장3길 9,양평군
양곡휴먼시아점,"경기 김포시 김포한강8로 331 상가2동 104호, 105호",1577-9621,"경기도 김포시 김포한강8로 331 상가2동 104호, 105호",김포시
송우태봉점,경기 포천시 소흘읍 태봉로 152,031-541-8808,경기도 포천시 소흘읍 태봉로 152,포천시
수지거묵점,경기 용인시 수지구 정평로 40-4,1577-9621 소프트크림 판매점,경기도 용인시 수지구 정평로 40-4,용인시수지구
분당미금역점,경기 성남시 분당구 돌마로 68,1577-9621 소프트크림 판매점,경기도 성남시 분당구 돌마로 68,성남시 분당구
여주점동점,경기 여주시 점동면 청안로 158,1577-9621 소프트크림 판매점,경기도 여주시 점동면 청안로 158,여주시
별내별가람점,"경기 남양주시 덕송3로 16 별가람마을 13단지 상가동 103호, 104호",1577-9621 소프트크림 판매점,"경기도 남양주시 덕송3로 16 별가람마을 13단지 상가동 103호, 104호",남양주시
영통경희대점,경기 수원시 영통구 영일로6번길 17,1577-9621 소프트크림 판매점,경기도 수원시 영통구 영일로6번길 17,수원시 영통구
의정부신촌점,경기 의정부시 의정로 193,1577-9621 소프트크림 판매점,경기도 의정부시 의정로 193,의정부시
의정부역점,경기 의정부시 신흥로232번길 5,031-875-8174 소프트크림 판매점,경기도 의정부시 신흥로232번길 5,의정부시
곤지암점,경기 광주시 곤지암읍 곤지암로 61,1577-9621 소프트크림 판매점,경기도 광주시 곤지암읍 곤지암로 61,광주시
송탄대로점,경기 평택시 경기대로 1389,1577-9621 소프트크림 판매점,경기도 평택시 경기대로 1389,평택시
곡반정동점,경기 수원시 권선구 곡선로49번길 13-3,031-898-7893,경기도 수원시 권선구 곡선로49번길 13-3,수원시 권선구
군포금정점,경기 군포시 금정로18번길 2,031-427-1386 소프트크림 판매점,경기도 군포시 금정로18번길 2,군포시
미금현대점,경기 성남시 분당구 성남대로172번길 12,1577-9621 소프트크림 판매점,경기도 성남시 분당구 성남대로172번길 12,성남시 분당구
수원삼익점,경기 수원시 장안구 경수대로 1082,031-271-9958,경기도 수원시 장안구 경수대로 1082,수원시 장안구
라페스타점,"경기 고양시 일산동구 호수로 672 대우메종리브르 109호,110호",1577-9621 소프트크림 판매점,"경기도 고양시 일산동구 호수로 672 대우메종리브르 109호,110호",수원시 장안구
덕정주공점,"경기 양주시 고암길 305-44 청담마을 상가동 102, 103, 104호",1577-9621 소프트크림 판매점,"경기도 양주시 고암길 305-44 청담마을 상가동 102, 103, 104호",양주시
김포대곶점,경기 김포시 대곶면 대명항로 266,031-983-9088,경기도 김포시 대곶면 대명항로 266,김포시
신모란본점,경기 성남시 중원구 성남대로1148번길 9,1577-9621 소프트크림 판매점,경기도 성남시 중원구 성남대로1148번길 9,성남시 중원구
화성세자로점,경기도 화성시 정남면 세자로 345,1577-9621,경기도 화성시 정남면 세자로 345,화성시
수원조원점,경기 수원시 장안구 조원로 91,1577-9621,경기도 수원시 장안구 조원로 91,수원시 장안구
범계백두점,경기 안양시 동안구 평촌대로217번길 27,031-387-8042,경기도 안양시 동안구 평촌대로217번길 27,안양시동안구
안산중앙2점,경기 안산시 단원구 고잔2길 45,031-482-6331 소프트크림 판매점,경기도 안산시 단원구 고잔2길 45,안산시단원구
평촌대륭1호점,경기 안양시 동안구 시민대로 401 (관양동) 1층 101호(대륭테크노타운 15차),1577-9621,경기도 안양시 동안구 시민대로 401 (관양동) 1층 101호(대륭테크노타운 15차),안양시동안구
시흥큰솔로점,"경기 시흥시 큰솔로42번길 2, 1층",1577-9621 소프트크림 판매점,"경기도 시흥시 큰솔로42번길 2, 1층",시흥시
용인송담대점,경기 용인시 처인구 동부로 26,031-335-6526 소프트크림 판매점,경기도 용인시 처인구 동부로 26,용인시처인구
신흥승리점,경기 성남시 수정구 공원로 339,1577-9621 소프트크림 판매점,경기도 성남시 수정구 공원로 339,성남시 수정구
수원구운점,경기 수원시 권선구 구운로86번길 3,1577-9621,경기도 수원시 권선구 구운로86번길 3,수원시 권선구
문산주공점,경기 파주시 문산읍 방촌로 1720 휴먼시아 상가동 103호,1577-9621,경기도 파주시 문산읍 방촌로 1720 휴먼시아 상가동 103호,파주시
시흥대야점,경기 시흥시 비둘기공원6길 16,031-311-5714,경기도 시흥시 비둘기공원6길 16,시흥시
남양주호평점,경기 남양주시 늘을1로16번안길 3-24,1577-9621 소프트크림 판매점,경기도 남양주시 늘을1로16번안길 3-24,남양주시
부천여월점,경기 부천시 성곡로 88,1577-9621,경기도 부천시 성곡로 88,부천시
부천소신점,경기 부천시 부일로 496,032-665-8418 소프트크림 판매점,경기도 부천시 부일로 496,부천시
김포구래점,"경기 김포시 양촌읍 대곶남로 705, 제 1동 101호, 102호",1577-9621,"경기도 김포시 양촌읍 대곶남로 705, 제 1동 101호, 102호",김포시
화성공단점,경기 화성시 장안면 돌서지길 141,1577-9621,경기도 화성시 장안면 돌서지길 141,화성시
가운주공점,경기 남양주시 가운로2길 28,1577-9621 소프트크림 판매점,경기도 남양주시 가운로2길 28,남양주시
수원연무2점,경기 수원시 장안구 창훈로60번길 21,031-255-6019,경기도 수원시 장안구 창훈로60번길 21,수원시 장안구
우만현대점,경기도 수원시 팔달구 권광로 358,1577-9621,경기도 수원시 팔달구 권광로 358,수원시 팔달구
화성신미주점,경기도 화성시 융건로 85 (배양동 69-311),1577-9621,경기도 화성시 융건로 85 (배양동 69-311),화성시
안산감골공원점,경기 안산시 상록구 감골공원길 31,1577-9621 소프트크림 판매점,경기도 안산시 상록구 감골공원길 31,안산시상록구
부천춘의점,경기 부천시 계남로 349,032-663-0692 소프트크림 판매점,경기도 부천시 계남로 349,부천시
금촌로터리점,경기 파주시 번영로 20 (금촌동) 이노빌딩 101호,1577-9621,경기도 파주시 번영로 20 (금촌동) 이노빌딩 101호,파주시
안산와동점,경기 안산시 단원구 와동공원로 122,1577-9621 소프트크림 판매점,경기도 안산시 단원구 와동공원로 122,안산시단원구
용인타운점,경기 용인시 처인구 백옥대로1370번길 11-17,1577-9621,경기도 용인시 처인구 백옥대로1370번길 11-17,용인시처인구
석수현대점,경기 안양시 만안구 안양로 512,031-472-6495 소프트크림 판매점,경기도 안양시 만안구 안양로 512,안양시만안구
세류2점,경기 수원시 권선구 정조로 588(세류동 167-1),1577-9621 소프트크림 판매점,경기도 수원시 권선구 정조로 588(세류동 167-1),수원시 권선구
안산신안점,경기 안산시 상록구 샘골로7길 18-1,1577-9621 소프트크림 판매점,경기도 안산시 상록구 샘골로7길 18-1,안산시상록구
남양주답내점,경기 남양주시 화도읍 경춘로 2349,031-511-7586,경기도 남양주시 화도읍 경춘로 2349,남양주시
궐동드림빌점,경기 오산시 궐동로69번서길 40,1577-9621,경기도 오산시 궐동로69번서길 40,오산시
수원베스트점,경기 수원시 권선구 효원로266번길 25,1577-9621,경기도 수원시 권선구 효원로266번길 25,수원시 권선구
평촌한림대점,경기 안양시 동안구 관평로170번길 43 훼미리상가 128호,1577-9621,경기도 안양시 동안구 관평로170번길 43 훼미리상가 128호,안양시동안구
화성율암점,경기 화성시 팔탄면 시청로 847,1577-9621,경기도 화성시 팔탄면 시청로 847,화성시
오산우리점,경기 오산시 궐동로69번길 31,031-372-2807,경기도 오산시 궐동로69번길 31,오산시
안산현대점,"경기 안산시 상록구 월피로 22, 안산현대아파트 상가A동 1층 ,2호",1577-9621 소프트크림 판매점,"경기도 안산시 상록구 월피로 22, 안산현대아파트 상가A동 1층 ,2호",안산시상록구
화성현대점,경기도 화성시 영통로 59,1577-9621,경기도 화성시 영통로 59,화성시
수원송죽점,경기 수원시 장안구 파장로 19,1577-9621,경기도 수원시 장안구 파장로 19,수원시 장안구
인덕시너스점,경기 안양시 동안구 흥안대로 519 (관양동) 아이퍼스트 1층 107호,1577-9621,경기도 안양시 동안구 흥안대로 519 (관양동) 아이퍼스트 1층 107호,안양시동안구
수원로데오점,경기 수원시 팔달구 향교로 8,1577-9621,경기도 수원시 팔달구 향교로 8,수원시 팔달구
안산주공점,"경기도 안산시 단원구 초지2로 41 상가동 105호, 106호",1577-9621 소프트크림 판매점,"경기도 안산시 단원구 초지2로 41 상가동 105호, 106호",안산시단원구
서현3점,경기 성남시 분당구 서현로 192,1577-9621,경기도 성남시 분당구 서현로 192,성남시 분당구
송탄장안점,경기 평택시 추담로 58-78 코오롱하늘채 단지내상가 2-100,1577-9621 소프트크림 판매점,경기도 평택시 추담로 58-78 코오롱하늘채 단지내상가 2-100,평택시
별내주공점,"경기 남양주시 별내5로 24 상가동 104,105호",1577-9621 소프트크림 판매점,"경기도 남양주시 별내5로 24 상가동 104,105호",남양주시
안성신라점,"경기 안성시 대덕면 대학6길 21, 101호,110호",031-676-5554 소프트크림 판매점,"경기도 안성시 대덕면 대학6길 21, 101호,110호",안성시
민락행복점,경기도 의정부시 용현로160번길 20,031-852-0626,경기도 의정부시 용현로160번길 20,의정부시
월곶풍림점,경기 시흥시 월곶중앙로70번안길 21,031-318-7134,경기도 시흥시 월곶중앙로70번안길 21,시흥시
포천이동교점,경기 포천시 소흘읍 호국로 297,1577-9621,경기도 포천시 소흘읍 호국로 297,포천시
시흥MTV점,"경기 시흥시 엠티브이북로 43-26, 101,102호",1577-9621,"경기도 시흥시 엠티브이북로 43-26, 101,102호",시흥시
의정부행복로점,경기도 의정부시 행복로 48,1577-9621 소프트크림 판매점,경기도 의정부시 행복로 48,의정부시
시흥우성점,"경기 시흥시 정왕천로 446, 1층 101호",1577-9621,"경기도 시흥시 정왕천로 446, 1층 101호",시흥시
배곧시티점,"경기 시흥시 배곧3로 27-7, 시흥배곧에스케이뷰 제상가2동 101.102호",1577-9621 소프트크림 판매점,"경기도 시흥시 배곧3로 27-7, 시흥배곧에스케이뷰 제상가2동 101.102호",시흥시
야탑엔지빌점,경기 성남시 분당구 장미로48번길 14,031-781-7286 소프트크림 판매점,경기도 성남시 분당구 장미로48번길 14,성남시 분당구
광주행운점,경기 광주시 도척면 도척윗로 168,1577-9621,경기도 광주시 도척면 도척윗로 168,광주시
이천SK점,경기 이천시 부발읍 대산로288번길 96,031-637-2275 소프트크림 판매점,경기도 이천시 부발읍 대산로288번길 96,이천시
용인동백점,경기 용인시 기흥구 동백중앙로 203,1577-9621 소프트크림 판매점,경기도 용인시 기흥구 동백중앙로 203,용인시기흥구
광주성산점,경기 광주시 곤지암읍 광여로 233,1577-9621,경기도 광주시 곤지암읍 광여로 233,광주시
안산선부점,경기 안산시 단원구 선삼로1길 36,1577-9621 소프트크림 판매점,경기도 안산시 단원구 선삼로1길 36,안산시단원구
조암IC점,경기 화성시 장안면 버들로 1073,1577-9621,경기도 화성시 장안면 버들로 1073,화성시
동탄산단점,경기 화성시 동탄면 동탄기흥로 125,1577-9621 소프트크림 판매점,경기도 화성시 동탄면 동탄기흥로 125,화성시
용인센터점,"경기 용인시 처인구 금령로 43 용인유메이드 107호,108호(김량장동 254-158)",1577-9621,"경기도 용인시 처인구 금령로 43 용인유메이드 107호,108호(김량장동 254-158)",용인시처인구
신동센터점,경기 수원시 영통구 신원로 105,1577-9621,경기도 수원시 영통구 신원로 105,수원시 영통구
성남광명점,경기 성남시 중원구 광명로256번길 8-1(중앙동),1577-9621,경기도 성남시 중원구 광명로256번길 8-1(중앙동),성남시 중원구
오산타운점,경기 오산시 궐동로7번길 3-9,1577-9621,경기도 오산시 궐동로7번길 3-9,오산시
범계다운타운점,경기 안양시 동안구 시민대로 214,031-382-3679,경기도 안양시 동안구 시민대로 214,안양시동안구
파주부곡점,경기 파주시 파주읍 정문로 638,031-953-1574,경기도 파주시 파주읍 정문로 638,파주시
파주운정점,경기 파주시 해솔로 85,1577-9621,경기도 파주시 해솔로 85,파주시
천마산점,경기 남양주시 화도읍 먹갓로38번길 3,031-595-5178,경기도 남양주시 화도읍 먹갓로38번길 3,남양주시
수지푸르지오점,"경기 용인시 수지구 광교중앙로295번길 21, 108호,109호",1577-9621 소프트크림 판매점,"경기도 용인시 수지구 광교중앙로295번길 21, 108호,109호",용인시수지구
안성칠곡점,경기 안성시 원곡면 만세로 1056,1577-9621 소프트크림 판매점,경기도 안성시 원곡면 만세로 1056,안성시
인계베스트점,경기 수원시 팔달구 세지로152번길 46,1577-9621,경기도 수원시 팔달구 세지로152번길 46,수원시 팔달구
